{
  "type": "FeatureCollection",
  "features": [
    {
      "type": "Feature",
      "properties": {
        "country": "United States of America",
        "iso_a2": "US"
      },
      "geometry": {
        "type": "MultiPolygon",
        "coordinates": [
          [[[-125.0, 24.0], [-66.0, 24.0], [-66.0, 49.5], [-125.0, 49.5], [-125.0, 24.0]]],
          [[[-180.0, 51.0], [-130.0, 51.0], [-130.0, 72.0], [-180.0, 72.0], [-180.0, 51.0]]],
          [[[-160.5, 18.5], [-154.5, 18.5], [-154.5, 22.5], [-160.5, 22.5], [-160.5, 18.5]]],
          [[[-171.0, -15.0], [-168.0, -15.0], [-168.0, -13.0], [-171.0, -13.0], [-171.0, -15.0]]],
          [[[-67.5, 17.5], [-65.0, 17.5], [-65.0, 18.6], [-67.5, 18.6], [-67.5, 17.5]]],
          [[[-65.2, 17.6], [-64.5, 17.6], [-64.5, 18.5], [-65.2, 18.5], [-65.2, 17.6]]],
          [[[-145.0, 13.0], [-144.5, 13.0], [-144.5, 21.0], [-145.0, 21.0], [-145.0, 13.0]]]
        ]
      }
    }
  ]
}
